{"type": "FeatureCollection", "features": [ {"type": "Feature", "properties": {"norad_id": 36012, "name": "IRIDIUM 33 DEB", "group": "iridium-33-debris", "lat": -34.616345996828976, "lon": 124.92120485256012, "alt_km": 683.3757792600818, "timestamp": "2025-12-25T07:41:10.108816+00:00", "meta": {"OBJECT_NAME": "IRIDIUM 33 DEB", "OBJECT_ID": "1997-051UT", "EPOCH": "2025-12-23T02:12:50.688576", "MEAN_MOTION": 14.19255751, "ECCENTRICITY": 0.02111422, "INCLINATION": 86.4409, "RA_OF_ASC_NODE": 303.3574, "ARG_OF_PERICENTER": 229.8799, "MEAN_ANOMALY": 128.3722, "EPHEMERIS_TYPE": 0, "CLASSIFICATION_TYPE": "U", "NORAD_CAT_ID": 36012, "ELEMENT_SET_NO": 999, "REV_AT_EPOCH": 65631, "BSTAR": 0.004288895, "MEAN_MOTION_DOT": 0.00011258, "MEAN_MOTION_DDOT": 0}, "tle": {"line1": "1 36012U 97051UT  25357.09225334  .00011258  00000+0  42889-2 0  9993", "line2": "2 36012  86.4409 303.3574 0211142 229.8799 128.3722 14.19255751656313"}}, "geometry": {"type": "Point", "coordinates": [124.92120485256012, -34.616345996828976]}}, {"type": "Feature", "properties": {"norad_id": 36028, "name": "IRIDIUM 33 DEB", "group": "iridium-33-debris", "lat": 26.39438863092962, "lon": 118.95131812922587, "alt_km": 589.1879198113966, "timestamp": "2025-12-25T07:41:10.108832+00:00", "meta": {"OBJECT_NAME": "IRIDIUM 33 DEB", "OBJECT_ID": "1997-051VK", "EPOCH": "2025-12-24T13:20:34.772064", "MEAN_MOTION": 14.95853711, "ECCENTRICITY": 0.001968, "INCLINATION": 86.323, "RA_OF_ASC_NODE": 301.1398, "ARG_OF_PERICENTER": 16.6795, "MEAN_ANOMALY": 343.5078, "EPHEMERIS_TYPE": 0, "CLASSIFICATION_TYPE": "U", "NORAD_CAT_ID": 36028, "ELEMENT_SET_NO": 999, "REV_AT_EPOCH": 87301, "BSTAR": 0.0024246454, "MEAN_MOTION_DOT": 0.00027287, "MEAN_MOTION_DDOT": 0}, "tle": {"line1": "1 36028U 97051VK  25358.55595801  .00027287  00000+0  24246-2 0  9997", "line2": "2 36028  86.3230 301.1398 0019680  16.6795 343.5078 14.95853711873019"}}, "geometry": {"type": "Point", "coordinates": [118.95131812922587, 26.39438863092962]}}, {"type": "Feature", "properties": {"norad_id": 36080, "name": "IRIDIUM 33 DEB", "group": "iridium-33-debris", "lat": -42.703529922245295, "lon": -0.8993636853266186, "alt_km": 755.8550680178587, "timestamp": "2025-12-25T07:41:10.108850+00:00", "meta": {"OBJECT_NAME": "IRIDIUM 33 DEB", "OBJECT_ID": "1997-051VM", "EPOCH": "2025-12-19T07:27:26.572608", "MEAN_MOTION": 14.4663152, "ECCENTRICITY": 0.0018893, "INCLINATION": 86.3193, "RA_OF_ASC_NODE": 5.1242, "ARG_OF_PERICENTER": 135.9522, "MEAN_ANOMALY": 224.319, "EPHEMERIS_TYPE": 0, "CLASSIFICATION_TYPE": "U", "NORAD_CAT_ID": 36080, "ELEMENT_SET_NO": 999, "REV_AT_EPOCH": 47509, "BSTAR": 0.00042458, "MEAN_MOTION_DOT": 1.555e-05, "MEAN_MOTION_DDOT": 0}, "tle": {"line1": "1 36080U 97051VM  25353.31072422  .00001555  00000+0  42458-3 0  9999", "line2": "2 36080  86.3193   5.1242 0018893 135.9522 224.3190 14.46631520475097"}}, "geometry": {"type": "Point", "coordinates": [-0.8993636853266186, -42.703529922245295]}}, {"type": "Feature", "properties": {"norad_id": 36083, "name": "IRIDIUM 33 DEB", "group": "iridium-33-debris", "lat": -75.51457234093097, "lon": -136.92887734368298, "alt_km": 750.4388060980673, "timestamp": "2025-12-25T07:41:10.108868+00:00", "meta": {"OBJECT_NAME": "IRIDIUM 33 DEB", "OBJECT_ID": "1997-051VQ", "EPOCH": "2025-12-24T08:52:23.766528", "MEAN_MOTION": 14.43245731, "ECCENTRICITY": 0.00265084, "INCLINATION": 86.3425, "RA_OF_ASC_NODE": 29.1454, "ARG_OF_PERICENTER": 183.5397, "MEAN_ANOMALY": 176.562, "EPHEMERIS_TYPE": 0, "CLASSIFICATION_TYPE": "U", "NORAD_CAT_ID": 36083, "ELEMENT_SET_NO": 999, "REV_AT_EPOCH": 85617, "BSTAR": 0.00051614904, "MEAN_MOTION_DOT": 1.763e-05, "MEAN_MOTION_DDOT": 0}, "tle": {"line1": "1 36083U 97051VQ  25358.36971952  .00001763  00000+0  51615-3 0  9994", "line2": "2 36083  86.3425  29.1454 0026508 183.5397 176.5620 14.43245731856170"}}, "geometry": {"type": "Point", "coordinates": [-136.92887734368298, -75.51457234093097]}}, {"type": "Feature", "properties": {"norad_id": 36390, "name": "IRIDIUM 33 DEB", "group": "iridium-33-debris", "lat": 11.152547190880226, "lon": -65.64159367471665, "alt_km": 657.5842120498191, "timestamp": "2025-12-25T07:41:10.108879+00:00", "meta": {"OBJECT_NAME": "IRIDIUM 33 DEB", "OBJECT_ID": "1997-051VU", "EPOCH": "2025-12-22T03:02:43.455840", "MEAN_MOTION": 14.73721752, "ECCENTRICITY": 0.00320639, "INCLINATION": 86.292, "RA_OF_ASC_NODE": 295.0892, "ARG_OF_PERICENTER": 130.5813, "MEAN_ANOMALY": 229.8203, "EPHEMERIS_TYPE": 0, "CLASSIFICATION_TYPE": "U", "NORAD_CAT_ID": 36390, "ELEMENT_SET_NO": 999, "REV_AT_EPOCH": 66400, "BSTAR": 0.0010853374, "MEAN_MOTION_DOT": 7.17e-05, "MEAN_MOTION_DDOT": 0}, "tle": {"line1": "1 36390U 97051VU  25356.12689185  .00007170  00000+0  10853-2 0  9997", "line2": "2 36390  86.2920 295.0892 0032063 130.5813 229.8203 14.73721752664001"}}, "geometry": {"type": "Point", "coordinates": [-65.64159367471665, 11.152547190880226]}}, {"type": "Feature", "properties": {"norad_id": 36483, "name": "IRIDIUM 33 DEB", "group": "iridium-33-debris", "lat": 2.814907399888189, "lon": -133.07504013985368, "alt_km": 741.3116931809554, "timestamp": "2025-12-25T07:41:10.108889+00:00", "meta": {"OBJECT_NAME": "IRIDIUM 33 DEB", "OBJECT_ID": "1997-051VZ", "EPOCH": "2025-12-24T20:54:18.258624", "MEAN_MOTION": 14.45850229, "ECCENTRICITY": 0.00113735, "INCLINATION": 86.3782, "RA_OF_ASC_NODE": 47.2957, "ARG_OF_PERICENTER": 92.8078, "MEAN_ANOMALY": 267.4426, "EPHEMERIS_TYPE": 0, "CLASSIFICATION_TYPE": "U", "NORAD_CAT_ID": 36483, "ELEMENT_SET_NO": 999, "REV_AT_EPOCH": 65321, "BSTAR": 0.00050139532, "MEAN_MOTION_DOT": 1.8e-05, "MEAN_MOTION_DDOT": 0}, "tle": {"line1": "1 36483U 97051VZ  25358.87104466  .00001800  00000+0  50140-3 0  9996", "line2": "2 36483  86.3782  47.2957 0011373  92.8078 267.4426 14.45850229653211"}}, "geometry": {"type": "Point", "coordinates": [-133.07504013985368, 2.814907399888189]}}, {"type": "Feature", "properties": {"norad_id": 36490, "name": "IRIDIUM 33 DEB", "group": "iridium-33-debris", "lat": 12.451009380529609, "lon": 5.591434939144024, "alt_km": 639.2507405695424, "timestamp": "2025-12-25T07:41:10.108900+00:00", "meta": {"OBJECT_NAME": "IRIDIUM 33 DEB", "OBJECT_ID": "1997-051WG", "EPOCH": "2025-12-23T18:13:03.957312", "MEAN_MOTION": 14.76410999, "ECCENTRICITY": 0.00050592, "INCLINATION": 86.3652, "RA_OF_ASC_NODE": 5.4915, "ARG_OF_PERICENTER": 59.5237, "MEAN_ANOMALY": 300.6482, "EPHEMERIS_TYPE": 0, "CLASSIFICATION_TYPE": "U", "NORAD_CAT_ID": 36490, "ELEMENT_SET_NO": 999, "REV_AT_EPOCH": 86647, "BSTAR": 0.0016428856, "MEAN_MOTION_DOT": 0.00011451, "MEAN_MOTION_DDOT": 0}, "tle": {"line1": "1 36490U 97051WG  25357.75907358  .00011451  00000+0  16429-2 0  9995", "line2": "2 36490  86.3652   5.4915 0005059  59.5237 300.6482 14.76410999866472"}}, "geometry": {"type": "Point", "coordinates": [5.591434939144024, 12.451009380529609]}}, {"type": "Feature", "properties": {"norad_id": 36493, "name": "IRIDIUM 33 DEB", "group": "iridium-33-debris", "lat": 22.46648449168202, "lon": -175.4202181571353, "alt_km": 681.6742744575977, "timestamp": "2025-12-25T07:41:10.108911+00:00", "meta": {"OBJECT_NAME": "IRIDIUM 33 DEB", "OBJECT_ID": "1997-051WK", "EPOCH": "2025-12-23T07:26:33.103968", "MEAN_MOTION": 14.65359392, "ECCENTRICITY": 0.00090124, "INCLINATION": 86.3569, "RA_OF_ASC_NODE": 6.9826, "ARG_OF_PERICENTER": 326.7527, "MEAN_ANOMALY": 33.3119, "EPHEMERIS_TYPE": 0, "CLASSIFICATION_TYPE": "U", "NORAD_CAT_ID": 36493, "ELEMENT_SET_NO": 999, "REV_AT_EPOCH": 74673, "BSTAR": 0.0013164613, "MEAN_MOTION_DOT": 7.136e-05, "MEAN_MOTION_DDOT": 0}, "tle": {"line1": "1 36493U 97051WK  25357.31010537  .00007136  00000+0  13165-2 0  9993", "line2": "2 36493  86.3569   6.9826 0009012 326.7527  33.3119 14.65359392746733"}}, "geometry": {"type": "Point", "coordinates": [-175.4202181571353, 22.46648449168202]}}, {"type": "Feature", "properties": {"norad_id": 37548, "name": "IRIDIUM 33 DEB", "group": "iridium-33-debris", "lat": 72.25628751672396, "lon": 49.39559375805556, "alt_km": 709.2217542660273, "timestamp": "2025-12-25T07:41:10.108921+00:00", "meta": {"OBJECT_NAME": "IRIDIUM 33 DEB", "OBJECT_ID": "1997-051XH", "EPOCH": "2025-12-15T20:39:30.861504", "MEAN_MOTION": 14.51326297, "ECCENTRICITY": 0.00258157, "INCLINATION": 86.3522, "RA_OF_ASC_NODE": 42.0105, "ARG_OF_PERICENTER": 178.4192, "MEAN_ANOMALY": 181.71, "EPHEMERIS_TYPE": 0, "CLASSIFICATION_TYPE": "U", "NORAD_CAT_ID": 37548, "ELEMENT_SET_NO": 999, "REV_AT_EPOCH": 65577, "BSTAR": 0.00067405053, "MEAN_MOTION_DOT": 2.715e-05, "MEAN_MOTION_DDOT": 0}, "tle": {"line1": "1 37548U 97051XH  25349.86077386  .00002715  00000+0  67405-3 0  9996", "line2": "2 37548  86.3522  42.0105 0025815 178.4192 181.7100 14.51326297655778"}}, "geometry": {"type": "Point", "coordinates": [49.39559375805556, 72.25628751672396]}}, {"type": "Feature", "properties": {"norad_id": 37550, "name": "IRIDIUM 33 DEB", "group": "iridium-33-debris", "lat": 69.61691989579369, "lon": -171.52064807925788, "alt_km": 659.3733216462906, "timestamp": "2025-12-25T07:41:10.108931+00:00", "meta": {"OBJECT_NAME": "IRIDIUM 33 DEB", "OBJECT_ID": "1997-051XK", "EPOCH": "2025-12-23T19:10:49.593504", "MEAN_MOTION": 14.67349531, "ECCENTRICITY": 0.00055645, "INCLINATION": 86.3769, "RA_OF_ASC_NODE": 18.9721, "ARG_OF_PERICENTER": 86.6044, "MEAN_ANOMALY": 273.5807, "EPHEMERIS_TYPE": 0, "CLASSIFICATION_TYPE": "U", "NORAD_CAT_ID": 37550, "ELEMENT_SET_NO": 999, "REV_AT_EPOCH": 86495, "BSTAR": 0.0012621421, "MEAN_MOTION_DOT": 7.151e-05, "MEAN_MOTION_DDOT": 0}, "tle": {"line1": "1 37550U 97051XK  25357.79918511  .00007151  00000+0  12621-2 0  9992", "line2": "2 37550  86.3769  18.9721 0005564  86.6044 273.5807 14.67349531864954"}}, "geometry": {"type": "Point", "coordinates": [-171.52064807925788, 69.61691989579369]}}]}